NORAD_CAT_ID,OBJECT_NAME,OBJECT_TYPE,EPOCH,MEAN_MOTION,ECCENTRICITY,INCLINATION,RA_OF_ASC_NODE,ARG_OF_PERICENTER,MEAN_ANOMALY,BSTAR,MEAN_MOTION_DOT,MEAN_MOTION_DDOT,TLE_LINE0,TLE_LINE1,TLE_LINE2,SEMIMAJOR_AXIS,PERIOD,APOGEE,PERIGEE,DECAYED
51771.0,STARLINK-3614,PAYLOAD,2023-12-29 04:07:53,15.08832809,0.000183,53.2186,337.2717,117.0394,243.0786,1.9333e-05,2e-07,0.0,0 STARLINK-3614,1 51771U 22017D   23363.17214468  .00000020  00000-0  19333-4 0  9998,2 51771  53.2186 337.2717 0001830 117.0394 243.0786 15.08832809103058,6917.902,95.438,541.033,538.501,0.0
51771.0,STARLINK-3614,PAYLOAD,2023-12-29 07:18:39,15.08836837,0.0001505,53.2189,336.6796,101.7228,258.3934,6.3971e-05,7.3e-06,0.0,0 STARLINK-3614,1 51771U 22017D   23363.30462332  .00000730  00000-0  63971-4 0  9993,2 51771  53.2189 336.6796 0001505 101.7228 258.3934 15.08836837101626,6917.89,95.438,540.796,538.714,0.0
51771.0,STARLINK-3614,PAYLOAD,2023-12-30 03:58:39,15.08847836,0.0001402,53.2183,332.8104,85.0034,275.1118,4.3901e-05,4.11e-06,0.0,0 STARLINK-3614,1 51771U 22017D   23364.16573768  .00000411  00000-0  43901-4 0  9991,2 51771  53.2183 332.8104 0001402  85.0034 275.1118 15.08847836103204,6917.856,95.437,540.691,538.752,0.0
51771.0,STARLINK-3614,PAYLOAD,2023-12-30 07:09:25,15.08852708,0.0001472,53.2183,332.2144,88.4809,271.6352,0.00013809,1.911e-05,0.0,0 STARLINK-3614,1 51771U 22017D   23364.29821288  .00001911  00000-0  13809-3 0  9997,2 51771  53.2183 332.2144 0001472  88.4809 271.6352 15.08852708101771,6917.842,95.437,540.725,538.688,0.0
51771.0,STARLINK-3614,PAYLOAD,2023-12-31 03:49:29,15.08812839,0.0001459,53.2181,328.3514,82.191,277.9248,-0.00017574,-3.082e-05,0.0,0 STARLINK-3614,1 51771U 22017D   23365.15936489 -.00003082  00000-0 -17574-3 0  9999,2 51771  53.2181 328.3514 0001459  82.1910 277.9248 15.08812839103355,6917.963,95.439,540.838,538.819,0.0
51771.0,STARLINK-3614,PAYLOAD,2023-12-31 07:00:15,15.08812755,0.0001471,53.218,327.7575,79.7929,280.3229,-0.00014948,-2.664e-05,0.0,0 STARLINK-3614,1 51771U 22017D   23365.29184793 -.00002664  00000-0 -14948-3 0  9994,2 51771  53.2180 327.7575 0001471  79.7929 280.3229 15.08812755101925,6917.964,95.439,540.846,538.811,0.0
51771.0,STARLINK-3614,PAYLOAD,2024-01-01 03:40:15,15.08843623,0.0001696,53.218,323.891,84.4458,275.6728,0.00017146,2.442e-05,0.0,0 STARLINK-3614,1 51771U 22017D   24001.15295551  .00002442  00000-0  17146-3 0  9997,2 51771  53.2180 323.8910 0001696  84.4458 275.6728 15.08843623103509,6917.869,95.437,540.908,538.561,0.0
51771.0,STARLINK-3614,PAYLOAD,2024-01-01 21:09:29,15.08854198,0.000172,53.2188,320.6169,97.9578,262.1609,0.00058959,9.111e-05,0.0,0 STARLINK-3614,1 51771U 22017D   24001.88159287  .00009111  00000-0  58959-3 0  9999,2 51771  53.2188 320.6169 0001720  97.9578 262.1609 15.08854198102167,6917.837,95.437,540.892,538.512,0.0
51771.0,STARLINK-3614,PAYLOAD,2024-01-02 03:31:01,15.08869008,0.000173,53.2182,319.4332,83.9603,276.1586,0.00069462,0.00010793,0.0,0 STARLINK-3614,1 51771U 22017D   24002.14654719  .00010793  00000-0  69462-3 0  9998,2 51771  53.2182 319.4332 0001730  83.9603 276.1586 15.08869008103654,6917.792,95.436,540.854,538.46,0.0
51771.0,STARLINK-3614,PAYLOAD,2024-01-02 06:41:47,15.08877089,0.0001732,53.2184,318.8372,91.5986,268.5204,0.0007802,0.00012163,0.0,0 STARLINK-3614,1 51771U 22017D   24002.27902222  .00012163  00000-0  78020-3 0  9990,2 51771  53.2184 318.8372 0001732  91.5986 268.5204 15.08877089102226,6917.767,95.435,540.83,538.434,0.0
51771.0,STARLINK-3614,PAYLOAD,2024-01-02 21:00:15,15.08852626,0.000148,53.2184,316.1635,88.9335,271.1827,-0.00011351,-2.095e-05,0.0,0 STARLINK-3614,1 51771U 22017D   24002.87518193 -.00002095  00000-0 -11351-3 0  9995,2 51771  53.2184 316.1635 0001480  88.9335 271.1827 15.08852626102318,6917.842,95.437,540.731,538.683,0.0
51771.0,STARLINK-3614,PAYLOAD,2024-01-03 03:21:47,15.08856086,0.0001379,53.2173,314.9724,93.6919,266.423,4.2599e-05,3.9e-06,0.0,0 STARLINK-3614,1 51771U 22017D   24003.14013778  .00000390  00000-0  42599-4 0  9998,2 51771  53.2173 314.9724 0001379  93.6919 266.4230 15.08856086103803,6917.831,95.437,540.65,538.742,0.0
51771.0,STARLINK-3614,PAYLOAD,2024-01-03 06:32:34,15.0885596,0.0001371,53.2176,314.3774,101.8991,258.2155,0.00017777,2.544e-05,0.0,0 STARLINK-3614,1 51771U 22017D   24003.27261681  .00002544  00000-0  17777-3 0  9992,2 51771  53.2176 314.3774 0001371 101.8991 258.2155 15.08855960102375,6917.832,95.437,540.645,538.748,0.0
51771.0,STARLINK-3614,PAYLOAD,2024-01-04 03:12:35,15.08839341,0.0001448,53.2173,310.5094,102.5783,257.5371,-0.00014217,-2.55e-05,0.0,0 STARLINK-3614,1 51771U 22017D   24004.13374271 -.00002550  00000-0 -14217-3 0  9993,2 51771  53.2173 310.5094 0001448 102.5783 257.5371 15.08839341103959,6917.882,95.438,540.749,538.746,0.0
51771.0,STARLINK-3614,PAYLOAD,2024-01-04 06:23:21,15.08841713,0.0001429,53.2172,309.9148,103.4797,256.6355,-0.00017055,-3.001e-05,0.0,0 STARLINK-3614,1 51771U 22017D   24004.26622239 -.00003001  00000-0 -17055-3 0  9992,2 51771  53.2172 309.9148 0001429 103.4797 256.6355 15.08841713102524,6917.875,95.437,540.729,538.752,0.0
51771.0,STARLINK-3614,PAYLOAD,2024-01-05 01:27:58,15.08848451,0.0001341,53.2174,306.3483,99.6399,260.4744,0.00020126,2.917e-05,0.0,0 STARLINK-3614,1 51771U 22017D   24005.06109947  .00002917  00000-0  20126-3 0  9993,2 51771  53.2174 306.3483 0001341  99.6399 260.4744 15.08848451104091,6917.855,95.437,540.647,538.792,0.0
51771.0,STARLINK-3614,PAYLOAD,2024-01-06 04:29:32,15.0883917,0.0001364,53.2176,301.2942,83.1586,276.9562,5.2905e-05,5.54e-06,0.0,0 STARLINK-3614,1 51771U 22017D   24006.18718507  .00000554  00000-0  52905-4 0  9991,2 51771  53.2176 301.2942 0001364  83.1586 276.9562 15.08839170104265,6917.883,95.438,540.692,538.804,0.0
51771.0,STARLINK-3614,PAYLOAD,2024-01-07 04:20:19,15.08842804,0.0001489,53.2187,296.831,94.4268,265.6894,0.00018871,2.717e-05,0.0,0 STARLINK-3614,1 51771U 22017D   24007.18078407  .00002717  00000-0  18871-3 0  9996,2 51771  53.2187 296.8310 0001489  94.4268 265.6894 15.08842804102961,6917.872,95.437,540.767,538.707,0.0
51771.0,STARLINK-3614,PAYLOAD,2024-01-08 02:35:44,15.08839533,0.0001714,53.2184,292.6713,74.6404,285.4777,9.4578e-05,1.217e-05,0.0,0 STARLINK-3614,1 51771U 22017D   24008.10815094  .00001217  00000-0  94578-4 0  9993,2 51771  53.2184 292.6713 0001714  74.6404 285.4777 15.08839533104554,6917.882,95.438,540.933,538.561,0.0
51771.0,STARLINK-3614,PAYLOAD,2024-01-08 04:11:07,15.08842942,0.0001625,53.2186,292.3718,83.9031,276.2147,0.00011801,1.591e-05,0.0,0 STARLINK-3614,1 51771U 22017D   24008.17438760  .00001591  00000-0  11801-3 0  9993,2 51771  53.2186 292.3718 0001625  83.9031 276.2147 15.08842942103116,6917.871,95.437,540.861,538.612,0.0
51771.0,STARLINK-3614,PAYLOAD,2024-01-09 04:01:54,15.08847145,0.0001893,53.2193,287.9064,72.8575,287.2625,7.2329e-05,8.63e-06,0.0,0 STARLINK-3614,1 51771U 22017D   24009.16798821  .00000863  00000-0  72329-4 0  9994,2 51771  53.2193 287.9064 0001893  72.8575 287.2625 15.08847145104715,6917.859,95.437,541.033,538.414,0.0
51771.0,STARLINK-3614,PAYLOAD,2024-01-09 21:31:07,15.08858441,0.000151,53.2178,284.6362,106.1602,253.9557,6.3281e-05,7.2e-06,0.0,0 STARLINK-3614,1 51771U 22017D   24009.89661761  .00000720  00000-0  63281-4 0  9995,2 51771  53.2178 284.6362 0001510 106.1602 253.9557 15.08858441103377,6917.824,95.436,540.734,538.644,0.0
51771.0,STARLINK-3614,PAYLOAD,2024-01-10 03:52:40,15.08860801,0.0001634,53.2176,283.4474,93.7689,266.349,0.0001848,2.656e-05,0.0,0 STARLINK-3614,1 51771U 22017D   24010.16157646  .00002656  00000-0  18480-3 0  9999,2 51771  53.2176 283.4474 0001634  93.7689 266.3490 15.08860801104861,6917.817,95.436,540.812,538.551,0.0
51771.0,STARLINK-3614,PAYLOAD,2024-01-11 03:43:28,15.08839741,0.0001644,53.218,278.9891,100.9336,259.1841,-8.6211e-06,-4.25e-06,0.0,0 STARLINK-3614,1 51771U 22017D   24011.15518646 -.00000425  00000-0 -86211-5 0  9993,2 51771  53.2180 278.9891 0001644 100.9336 259.1841 15.08839741105016,6917.881,95.438,540.883,538.609,0.0
51771.0,STARLINK-3614,PAYLOAD,2024-01-11 18:01:55,15.08850578,0.0001597,53.2172,276.3144,110.2989,249.8175,0.00015812,2.23e-05,0.0,0 STARLINK-3614,1 51771U 22017D   24011.75134083  .00002230  00000-0  15812-3 0  9999,2 51771  53.2172 276.3144 0001597 110.2989 249.8175 15.08850578105102,6917.848,95.437,540.818,538.608,0.0
51771.0,STARLINK-3614,PAYLOAD,2024-01-11 21:12:41,15.0885669,0.0001567,53.2166,275.7197,110.6377,249.4783,0.00029401,4.396e-05,0.0,0 STARLINK-3614,1 51771U 22017D   24011.88381812  .00004396  00000-0  29401-3 0  9991,2 51771  53.2166 275.7197 0001567 110.6377 249.4783 15.08856690103670,6917.829,95.436,540.778,538.61,0.0
51771.0,STARLINK-3614,PAYLOAD,2024-01-12 00:23:28,15.08861744,0.0001543,53.2171,275.1254,100.9662,259.1504,0.00079503,0.00012395,0.0,0 STARLINK-3614,1 51771U 22017D   24012.01629943  .00012395  00000-0  79503-3 0  9993,2 51771  53.2171 275.1254 0001543 100.9662 259.1504 15.08861744105146,6917.814,95.436,540.746,538.612,0.0
51771.0,STARLINK-3614,PAYLOAD,2024-01-12 22:38:52,15.08830504,0.0001461,53.2162,270.9625,100.5589,259.5567,1.023e-05,-1.25e-06,0.0,0 STARLINK-3614,1 51771U 22017D   24012.94366801 -.00000125  00000-0  10230-4 0  9998,2 51771  53.2162 270.9625 0001461 100.5589 259.5567 15.08830504103831,6917.909,95.438,540.785,538.764,0.0
51771.0,STARLINK-3614,PAYLOAD,2024-01-14 03:15:49,15.08854653,0.0001314,53.2151,265.6111,83.7058,276.4084,0.0010311,0.00016167,0.0,0 STARLINK-3614,1 51771U 22017D   24014.13599410  .00016167  00000-0  10311-2 0  9995,2 51771  53.2151 265.6111 0001314  83.7058 276.4084 15.08854653105464,6917.836,95.437,540.61,538.792,0.0
51771.0,STARLINK-3614,PAYLOAD,2024-01-14 22:20:27,15.08852907,0.0001382,53.215,262.0441,96.8674,263.2475,0.00065162,0.00010101,0.0,0 STARLINK-3614,1 51771U 22017D   24014.93087391  .00010101  00000-0  65162-3 0  9990,2 51771  53.2150 262.0441 0001382  96.8674 263.2475 15.08852907104135,6917.841,95.437,540.662,538.75,0.0
